full_name,a,e,i,om,w,q,ad,per_y,data_arc,condition_code,n_obs_used,n_del_obs_used,n_dop_obs_used,H,diameter
    22 Kalliope (A852 WA),2.91034752841923,0.09804976640836637,13.70173621801037,66.00464550008188,357.2564762137241,2.624988633090558,3.195706423747902,4.965071190429111,60645.0,0,3227,,,6.5,167.53599999999997
247168 (2001 AM28),3.117341967040037,0.3604286934776758,22.01781486612245,319.50435201044917,56.60043534007981,1.9937624747366691,4.2409214593434035,5.50408169866224,6721.0,0,475,,,14.8,5.837000000000001
 12325 Bogota (1992 RH7),2.238831489245174,0.08097199468100147,4.7528647473992285,35.12148751694316,76.55661771876241,2.057548837806355,2.4201141406839914,3.34996532877688,14150.0,0,1612,,,14.3,3.315
 55404 (2001 SY343),3.1748050392675067,0.08576988752653236,14.68657565615277,113.7688953875725,258.8713677046429,2.902502368130865,3.4471077104041488,5.656968933567059,10313.0,0,1279,,,13.8,10.370999999999999
 30903 (1993 FU37),2.2791951783134268,0.07399449880884126,4.623926620526307,24.846696698831447,149.23151113913818,2.110547273406597,2.447843083220256,3.4409667691083503,9835.0,0,910,,,15.7,4.338
       (2010 MX95),2.30138245652567,0.2311017019650468,11.82493051635043,90.92844713940761,177.6556078013395,1.769529053950088,2.833235859101253,3.49133401362553,6220.0,0,213,,,17.1,2.363
275201 (2009 WN159),3.100996506799891,0.05267523805484251,3.583131531450734,346.0637919574573,329.6762094198423,2.9376507775969714,3.26434223600281,5.4608483703586606,5828.0,0,257,,,15.9,4.5760000000000005
 12227 Penney (1985 TO3),2.272786227288103,0.1898786141777766,5.6454275546299515,275.7306209458934,83.06358395003005,1.841232728128301,2.704339726447906,3.4264633091532897,12552.0,0,1409,,,14.8,2.12
375932 (2009 WP75),2.590067239123832,0.2252561812475584,4.50556190750929,98.65698904659055,306.51221798210037,2.0066385836643907,3.1734958945832727,4.1684515714007,6817.0,0,113,,,17.6,1.959
158083 (2000 VK12),2.708519752814891,0.2628626932677018,8.844849676864271,206.1481534162809,231.39496176550222,1.9965509558211991,3.4204885498085837,4.45765253440788,8017.0,0,376,,,16.0,1.824
 40320 (1999 LP14),2.444952494322078,0.1524482164721435,7.848711704779282,208.75355968746132,133.7391924536725,2.072223847203558,2.8176811414405964,3.8230839968776,10486.0,0,1373,,,14.9,3.1839999999999997
 22484 (1997 GX21),2.898550968671795,0.07016344763354321,3.655240236226857,98.90874163974857,264.4187524143572,2.6951786395682347,3.101923297775353,4.9349142933072,8337.0,0,1835,,,13.5,6.037000000000001
   972 Cohnia (A922 BD),3.055230283473244,0.2354521172639726,8.372177099983686,281.5238459962728,93.59481174526236,2.3358698445004618,3.774590722446027,5.3404041834494596,41832.0,0,3140,,,9.6,77.827
160411 (2004 VC63),2.2677081070238847,0.1966778969974069,4.165885143688882,70.54996409894304,258.17500739411565,1.8217000455304568,2.713716168517313,3.41498602875558,8803.0,0,368,,,16.5,2.4619999999999997
112959 (2002 RZ13),3.114396027665674,0.0802816923959761,9.294534490929287,10.0606625826733,59.817919438819196,2.8643670437733686,3.36442501155798,5.49628137079818,10344.0,0,518,,,14.9,6.445
152663 (1998 DF32),2.7122373626611815,0.1836321825864841,9.710788693603027,77.30624376279684,342.1058922726999,2.2141832960631,3.2102914292592653,4.46683328604934,8092.0,0,716,,,15.5,6.104
 82817 (2001 QV37),2.7722941880544316,0.0948602749597688,11.03124081908905,319.3636179822512,333.7236319793217,2.509313599106219,3.0352747770026434,4.61601460236434,7900.0,0,1124,,,14.2,4.249
 65294 (2002 JJ22),2.7527545635823603,0.1121749616823124,8.825840435526045,201.11052768849117,280.7751681790728,2.443964425891698,3.061544701273022,4.567298951730691,10407.0,0,1148,,,14.7,3.3539999999999996
 42552 (1996 RH25),2.35626740790113,0.1820688292685741,4.746009849047391,350.131956260066,118.8940686227723,1.927264559500873,2.7852702563013856,3.6169713305894797,8680.0,0,1129,,,15.4,4.901
234845 (2002 RJ182),3.0948280929603063,0.1565799052045473,15.695670915512471,296.6575209355687,93.07993270998723,2.610240203540212,3.579415982380402,5.44456263003224,6360.0,0,291,,,15.2,6.037999999999999
 72090 (2000 YL45),2.353459749933569,0.2182854312841267,7.3833226325421215,129.9345997869969,219.4328236372858,1.8397337734094867,2.8671857264576515,3.61050844404962,7624.0,0,896,,,15.5,2.12
512858 (2016 VR15),2.6902051024232887,0.08607547349524874,6.506366383321406,55.296543726867505,308.57287146945686,2.4586444244328702,2.9217657804137067,4.41251597147924,6084.0,0,138,,,16.8,2.714
 21980 (1999 XA5),2.951535722178851,0.08488714978017185,2.2900404958967058,144.7155276754312,195.1635887615255,2.700988267248727,3.2020831771089737,5.07084420922238,8306.0,0,1090,,,14.7,3.623
 27204 (1999 CY74),3.000715879719922,0.06645086879184316,9.891166491440172,266.869090527228,160.958113704126,2.801315702515053,3.200116056924792,5.19811061644905,13662.0,0,1411,,,13.3,7.236000000000001
386595 (2009 FY56),3.2026253637412636,0.2198144796367622,24.60450827840599,302.0275880011048,249.52914476875043,2.498641935938982,3.906608791543547,5.731488303457611,6286.0,0,156,,,15.6,4.439
 36153 (1999 RF201),2.6277453632949217,0.2235797859119417,11.880787048576678,278.518052922085,337.20258959224634,2.040234617538346,3.215256109051498,4.25974027331207,8993.0,0,1403,,,14.1,8.732999999999999
131112 (2001 AQ35),2.6167620828176994,0.1511826557750295,12.152664766428849,321.43145999,293.1237009382194,2.221153041605922,3.012371124029476,4.233061318495819,7598.0,0,698,,,14.7,2.8760000000000003
110606 (2001 TX136),2.654198804189107,0.1541570279374857,12.634710931711021,69.93929859082786,40.288288552073006,2.2450354049800856,3.0633622033981287,4.3242259234918,8130.0,0,810,,,14.8,6.559
237788 (2002 AX201),2.4536209118282137,0.2221940554574798,8.428709888011506,49.67304956732925,96.13791882637463,1.9084409308738242,2.9988008927826035,3.84343374497312,6940.0,0,224,,,17.2,1.8219999999999998
238118 (2003 OF18),2.395952765484049,0.237497228955284,4.542762375702138,198.0464560277232,132.1480801099553,1.8269206229738382,2.9649849079942596,3.7087330993315697,6051.0,0,293,,,17.2,1.973
158525 (2002 GV15),2.858002905238686,0.2365998408958639,9.000704394297594,32.560504996896945,174.0136083910646,2.1817998725792958,3.5342059378980766,4.8317249212532,7350.0,0,299,,,15.8,5.002
412344 (2013 LZ7),2.57448141662885,0.2798320099319042,11.126921518110171,232.6377103679084,136.77757136099478,1.854059107281263,3.294903725976437,4.13088252158688,8356.0,0,427,,,16.1,3.5010000000000003
190031 (2004 RW17),2.618764160089862,0.1149758009180036,2.843395139881487,174.1968107719644,100.1539669430763,2.317669653368167,2.9198586668115567,4.2379203024707,9567.0,0,370,,,16.4,2.952
 14631 Benbryan (1998 VS32),3.1499915213589715,0.08000603508560951,15.27896350179195,91.25197001874625,162.3726676351977,2.897973189181754,3.4020098535361916,5.59077841163696,17902.0,0,2757,,,12.0,17.461
249264 (2008 SB98),2.812570876409362,0.03647412276866056,4.7871272965183564,0.4321004882468747,77.13864206785641,2.7099848209676467,2.9151569318510755,4.71697327203895,6954.0,0,257,,,16.2,3.447
 63477 (2001 OG38),3.043697374151636,0.08310075627806933,10.38208836493158,8.479847325814248,119.4717698388842,2.790763820478062,3.2966309278252113,5.31019423270704,10435.0,0,905,,,14.5,4.553
393846 (2005 SD149),3.067208288286718,0.1433654676715808,9.645022987589671,35.630146785547616,329.43245434538034,2.6274765375903444,3.5069400389830916,5.37184045963963,5884.0,0,148,,,16.2,4.041
  7530 Mizusawa (1994 GO1),2.623393119595956,0.17093905264194598,15.143219712250449,158.0290116967251,192.1184401262405,2.174952785024824,3.0718334541670878,4.24916176596366,15313.0,0,2240,,,12.5,8.045
 18779 Hattyhong (1999 JN44),2.3217807677010294,0.06146424465819179,7.30951531871989,37.53500097626766,103.7312419160787,2.179074266552369,2.46448726884969,3.5378548953287594,9741.0,0,1860,,,14.3,3.5
334360 (2001 YO133),2.889986055743725,0.03258441314991501,10.987021696734299,253.52342614838489,102.12448264050371,2.795817556105878,2.9841545553815716,4.9130572313254905,5994.0,0,94,,,16.2,3.178
290818 (2005 VK114),2.2912764891602917,0.1042378277089405,2.4086366300058932,241.62203995676398,266.0135723577177,2.052438805249655,2.530114173070928,3.46836224860973,6657.0,0,152,,,17.5,1.518
 12798 (1995 WZ4),2.4374118218462493,0.1367302679316058,3.6314986311418282,104.7309772226606,10.26410738356955,2.1041438503855483,2.7706797933069502,3.80541102486745,12900.0,0,2030,,,14.4,3.114
  6948 Gounelle (1981 ET22),2.394744367476832,0.1597294399796218,2.583835323802453,26.37489021074687,90.87437812170685,2.012233190765404,2.77725554418826,3.70592770561077,25441.0,0,1537,,,14.5,3.6260000000000003
295905 (2008 WB93),2.6846271957456613,0.3072412819753204,8.588803771548545,136.6271947045875,280.2367086633201,1.859798894498955,3.509455496992368,4.398799634473179,7150.0,0,249,,,16.4,3.944
 49586 (1999 CD138),2.990525379778257,0.1619605219589474,6.188416316878668,323.7306003761075,292.0950460647119,2.50617832833789,3.474872431218623,5.17165375602401,9547.0,0,1496,,,13.8,5.9670000000000005
151845 (2003 GA15),2.5570737126068352,0.1825079676536688,13.51033415516386,62.20379649402478,94.98192809077035,2.09038738617834,3.0237600390353285,4.0890561444899,7831.0,0,566,,,15.7,4.94
261190 (2005 TT144),3.140286877400456,0.2070505693261097,21.95338263311131,192.14895167333339,295.5357016564967,2.49008869158738,3.790485063213533,5.56496181670048,6268.0,0,208,,,15.8,5.434
 38822 (2000 RY83),2.2825113184115096,0.08265035284460782,6.504132096685749,309.8093426561453,283.4781624979058,2.093860952572987,2.471161684250031,3.44847920871175,8772.0,0,1091,,,15.3,1.896
145803 (1998 SW12),2.6091710692060768,0.3016182493484553,32.42648045690489,49.985383243836786,303.62347368250323,1.822197459061503,3.3961446793506513,4.21465503441795,8312.0,0,704,,,14.8,2.793
  4427 Burnashev (1971 QP1),3.026014661391349,0.104265235904934,8.839986107816651,318.0052369163277,76.73754716438344,2.710506528869591,3.341522793913108,5.26398622480016,17763.0,0,1896,,,12.5,12.436
